#aV2013  8  6  0  0  0.00000000     288 DD+AD WGS84 FIT  NGA
## 1752 172800.00000000   300.00000000 56510 0.0000000000000
+   31     1  2  3  4  5  6  7  8  9 10 11 12 13 14 15 16 17
+         18 19 20 21 22 23 24 25 26 27 28 29 31 32  0  0  0
+          0  0  0  0  0  0  0  0  0  0  0  0  0  0  0  0  0
+          0  0  0  0  0  0  0  0  0  0  0  0  0  0  0  0  0
+          0  0  0  0  0  0  0  0  0  0  0  0  0  0  0  0  0
++         2  2  2  2  2  2  2  2  2  2  2  2  2  2  2  2  2
++         2  2  2  2  2  2  2  2  2  2  2  2  2  2  2  0  0
++         0  0  0  0  0  0  0  0  0  0  0  0  0  0  0  0  0
++         0  0  0  0  0  0  0  0  0  0  0  0  0  0  0  0  0
++         0  0  0  0  0  0  0  0  0  0  0  0  0  0  0  0  0
%c cc cc ccc ccc cccc cccc cccc cccc ccccc ccccc ccccc ccccc
%c cc cc ccc ccc cccc cccc cccc cccc ccccc ccccc ccccc ccccc
%f  0.0000000  0.000000000  0.00000000000  0.000000000000000
%f  0.0000000  0.000000000  0.00000000000  0.000000000000000
%i    0    0    0    0      0      0      0      0         0
%i    0    0    0    0      0      0      0      0         0
/*      NGA, ST. LOUIS,MO.                                  
/*   EPHEMERIS COMPUTED FROM  1 DAYS OF DATA
/*   EPOCHA SMOOTHER  
/* CCCCCCCCCCCCCCCCCCCCCCCCCCCCCCCCCCCCCCCCCCCCCCCCCCCCCCCCC
*  2013  8  6  3 15  0.00000000                                                 
P  1  -3810.400588  17332.100509 -19752.316665     59.510589                    
V  1 -22981.150698  10082.183576  13392.586548      0.047543                    
P  2  22265.167644 -13786.476019   2452.566975    445.198567                    
V  2   4396.252887   2100.391237 -31389.096367      0.017826                    
P  3  -9456.989404  19255.627588  14999.647798    242.249367                    
V  3  -4545.187848 -19827.630261  22026.661769      0.049791                    
P  4  24688.805444  -5039.320227  -9106.327498    292.218485                    
V  4  -8593.921338   7638.597995 -28160.215708      0.102803                    
P  5  14446.120737  -8301.172658  20688.372768   -399.313198                    
V  5  21570.537605  15142.387311  -8829.698320     -0.002954                    
P  6 -13610.497760  12792.170840  18806.390368    107.346203                    
V  6  -1963.708612 -23924.947074  15281.884771     -0.186836                    
P  7  12439.513896  10064.601518  21304.615419    244.197017                    
V  7 -24035.774079  11929.405635   8109.165722      0.041932                    
P  8  21288.873830   3234.353843  16068.672757      7.802069                    
V  8 -18412.330997   7503.834854  22464.871505      0.001941                    
P  9  21541.154170    348.584934  15042.210991    259.428474                    
V  9 -17146.929890  10446.765735  23363.299608      0.025207                    
P 10  23535.946142   6943.013444  10376.061471    -89.553290                    
V 10   9618.133194   9865.676962 -27207.896712     -0.014195                    
P 11  -7826.932500  21990.181994 -12892.112197   -407.605452                    
V 11 -14300.499016   8171.740343  23719.678434     -0.035131                    
P 12  -2116.331190 -17650.025413 -19850.781885    148.900802                    
V 12  20849.110735  13771.504800 -14298.466455      0.021508                    
P 13   5859.547853  21739.353942  13843.139485     92.839051                    
V 13  -4660.928925  17297.831755 -25088.542205     -0.037263                    
P 14 -14517.716001  -3291.808968 -21794.878006    218.376310                    
V 14   3739.340250 -27878.458915   1553.164921     -0.006057                    
P 15   2998.875291 -26064.809972   3070.129594   -130.912181                    
V 15   3552.937745   4079.759218  31130.837283     -0.017415                    
P 16 -14630.873918   6672.234530  21175.897568   -249.110875                    
V 16 -21337.765089 -16249.621467  -9281.739884      0.006049                    
P 17  14410.000452   5175.382268 -21503.309258     -8.357230                    
V 17  -3046.733857  27621.881935   4329.706878     -0.038352                    
P 18 -20370.623293 -16962.636134   3992.080415    267.290081                    
V 18   5708.347606   -425.729024  30213.535084      0.020005                    
P 19  -8374.378679  24024.173783   6697.608346   -394.415905                    
V 19  -1619.885519  -9093.592648  30532.384725     -0.028779                    
P 20   8103.094319  19199.644651 -16680.261010    113.886439                    
V 20 -19259.270499  -8533.942921 -19305.665252      0.023937                    
P 21 -16316.990231  -8373.360058  19949.599684   -312.124168                    
V 21  20991.719401 -11782.932167  12080.149589     -0.019508                    
P 22 -23863.382039  -9126.046581  -7327.455448    178.795966                    
V 22  -5993.419872  -8319.133536  28926.064083      0.018539                    
P 23   1367.480067  25925.468814   4534.655664     60.168448                    
V 23  -3674.288718   5479.483551 -31184.747835     -0.035149                    
P 24   7864.800024 -18065.287540 -17800.375310    -11.331367                    
V 24  20882.760380  -8816.586347  18226.685789     -0.007088                    
P 25 -15246.947458 -18857.050676 -11010.825131    131.850770                    
V 25  12694.285489   5861.968563 -27671.248120      0.048230                    
P 26  12524.748869 -17804.108322  14350.865655    129.428573                    
V 26   -885.519719  19532.655464  24264.708323      0.172147                    
P 27 -12418.372442  16790.598878  16395.221450    -20.222782                    
V 27   -693.493730 -20912.033028  20889.485723     -0.049077                    
P 28  22571.196503  13343.584046  -4189.227822    281.806886                    
V 28   3640.093666   5189.625324  31557.419421      0.032063                    
P 29  -5700.903329 -23122.650508  11848.287365    459.781933                    
V 29   3772.238318 -14629.181105 -26788.518665      0.031249                    
P 31 -24809.647980   5918.145046  -7742.637530    322.699454                    
V 31   8228.211666  -5927.743032 -29964.733319      0.009517                    
P 32  -2081.929361  16955.211927 -20338.637164   -556.019460                    
V 32 -20921.933769 -15482.917160 -10178.909319      0.014795                    
EOF
